CCSDS_OMM_VERS = 2.0
CREATION_DATE  = 
ORIGINATOR     = 

OBJECT_NAME    = STARLINK-36383
OBJECT_ID      = 2026-036U
CENTER_NAME    = EARTH
REF_FRAME      = TEME
TIME_SYSTEM    = UTC
MEAN_ELEMENT_THEORY = SGP/SGP4

EPOCH          = 2026-03-05T14:00:01.999872
MEAN_MOTION    = 15.81959675
ECCENTRICITY   = .00019946
INCLINATION    = 42.9942
RA_OF_ASC_NODE = 274.7817
ARG_OF_PERICENTER = 272.5737
MEAN_ANOMALY   = 22.7547

EPHEMERIS_TYPE = 0
CLASSIFICATION_TYPE = U
NORAD_CAT_ID   = 67922
ELEMENT_SET_NO = 999
REV_AT_EPOCH   = 298
BSTAR          = .44774405E-3
MEAN_MOTION_DOT = .94534E-3
MEAN_MOTION_DDOT = 0

CCSDS_OMM_VERS = 2.0
CREATION_DATE  = 
ORIGINATOR     = 

OBJECT_NAME    = STARLINK-36406
OBJECT_ID      = 2026-036V
CENTER_NAME    = EARTH
REF_FRAME      = TEME
TIME_SYSTEM    = UTC
MEAN_ELEMENT_THEORY = SGP/SGP4

EPOCH          = 2026-03-05T14:00:01.999872
MEAN_MOTION    = 15.81945247
ECCENTRICITY   = .00017532
INCLINATION    = 42.9943
RA_OF_ASC_NODE = 274.7708
ARG_OF_PERICENTER = 266.4572
MEAN_ANOMALY   = 33.1489

EPHEMERIS_TYPE = 0
CLASSIFICATION_TYPE = U
NORAD_CAT_ID   = 67923
ELEMENT_SET_NO = 999
REV_AT_EPOCH   = 298
BSTAR          = .59501542E-3
MEAN_MOTION_DOT = .12618E-2
MEAN_MOTION_DDOT = 0

CCSDS_OMM_VERS = 2.0
CREATION_DATE  = 
ORIGINATOR     = 

OBJECT_NAME    = STARLINK-36714
OBJECT_ID      = 2026-036W
CENTER_NAME    = EARTH
REF_FRAME      = TEME
TIME_SYSTEM    = UTC
MEAN_ELEMENT_THEORY = SGP/SGP4

EPOCH          = 2026-03-05T14:00:01.999872
MEAN_MOTION    = 15.81947132
ECCENTRICITY   = .0002244
INCLINATION    = 42.9943
RA_OF_ASC_NODE = 274.7598
ARG_OF_PERICENTER = 262.2658
MEAN_ANOMALY   = 41.6138

EPHEMERIS_TYPE = 0
CLASSIFICATION_TYPE = U
NORAD_CAT_ID   = 67924
ELEMENT_SET_NO = 999
REV_AT_EPOCH   = 298
BSTAR          = .51685211E-3
MEAN_MOTION_DOT = .109334E-2
MEAN_MOTION_DDOT = 0

CCSDS_OMM_VERS = 2.0
CREATION_DATE  = 
ORIGINATOR     = 

OBJECT_NAME    = STARLINK-36726
OBJECT_ID      = 2026-036X
CENTER_NAME    = EARTH
REF_FRAME      = TEME
TIME_SYSTEM    = UTC
MEAN_ELEMENT_THEORY = SGP/SGP4

EPOCH          = 2026-03-05T14:00:01.999872
MEAN_MOTION    = 15.81944960
ECCENTRICITY   = .00018505
INCLINATION    = 42.9953
RA_OF_ASC_NODE = 274.7490
ARG_OF_PERICENTER = 255.3489
MEAN_ANOMALY   = 52.8098

EPHEMERIS_TYPE = 0
CLASSIFICATION_TYPE = U
NORAD_CAT_ID   = 67925
ELEMENT_SET_NO = 999
REV_AT_EPOCH   = 298
BSTAR          = .49631708E-3
MEAN_MOTION_DOT = .1049E-2
MEAN_MOTION_DDOT = 0

CCSDS_OMM_VERS = 2.0
CREATION_DATE  = 
ORIGINATOR     = 

OBJECT_NAME    = STARLINK-36758
OBJECT_ID      = 2026-036Y
CENTER_NAME    = EARTH
REF_FRAME      = TEME
TIME_SYSTEM    = UTC
MEAN_ELEMENT_THEORY = SGP/SGP4

EPOCH          = 2026-03-05T14:00:01.999872
MEAN_MOTION    = 15.81959358
ECCENTRICITY   = .00020101
INCLINATION    = 42.9955
RA_OF_ASC_NODE = 274.7379
ARG_OF_PERICENTER = 265.9054
MEAN_ANOMALY   = 46.5111

EPHEMERIS_TYPE = 0
CLASSIFICATION_TYPE = U
NORAD_CAT_ID   = 67926
ELEMENT_SET_NO = 999
REV_AT_EPOCH   = 298
BSTAR          = .44918155E-3
MEAN_MOTION_DOT = .94841E-3
MEAN_MOTION_DDOT = 0

CCSDS_OMM_VERS = 2.0
CREATION_DATE  = 
ORIGINATOR     = 

OBJECT_NAME    = STARLINK-36728
OBJECT_ID      = 2026-036Z
CENTER_NAME    = EARTH
REF_FRAME      = TEME
TIME_SYSTEM    = UTC
MEAN_ELEMENT_THEORY = SGP/SGP4

EPOCH          = 2026-03-05T14:00:01.999872
MEAN_MOTION    = 15.81944070
ECCENTRICITY   = .00019276
INCLINATION    = 42.9966
RA_OF_ASC_NODE = 274.7162
ARG_OF_PERICENTER = 277.7337
MEAN_ANOMALY   = 43.2492

EPHEMERIS_TYPE = 0
CLASSIFICATION_TYPE = U
NORAD_CAT_ID   = 67927
ELEMENT_SET_NO = 999
REV_AT_EPOCH   = 298
BSTAR          = .32046679E-3
MEAN_MOTION_DOT = .67246E-3
MEAN_MOTION_DDOT = 0

CCSDS_OMM_VERS = 2.0
CREATION_DATE  = 
ORIGINATOR     = 

OBJECT_NAME    = STARLINK-36771
OBJECT_ID      = 2026-036AA
CENTER_NAME    = EARTH
REF_FRAME      = TEME
TIME_SYSTEM    = UTC
MEAN_ELEMENT_THEORY = SGP/SGP4

EPOCH          = 2026-03-05T14:00:01.999872
MEAN_MOTION    = 15.81953164
ECCENTRICITY   = .00020739
INCLINATION    = 42.9950
RA_OF_ASC_NODE = 274.7269
ARG_OF_PERICENTER = 261.9753
MEAN_ANOMALY   = 54.7241

EPHEMERIS_TYPE = 0
CLASSIFICATION_TYPE = U
NORAD_CAT_ID   = 67928
ELEMENT_SET_NO = 999
REV_AT_EPOCH   = 298
BSTAR          = .40527921E-3
MEAN_MOTION_DOT = .85402E-3
MEAN_MOTION_DDOT = 0

CCSDS_OMM_VERS = 2.0
CREATION_DATE  = 
ORIGINATOR     = 

OBJECT_NAME    = STARLINK-36809
OBJECT_ID      = 2026-036AB
CENTER_NAME    = EARTH
REF_FRAME      = TEME
TIME_SYSTEM    = UTC
MEAN_ELEMENT_THEORY = SGP/SGP4

EPOCH          = 2026-03-05T14:00:01.999872
MEAN_MOTION    = 15.81950643
ECCENTRICITY   = .0001892
INCLINATION    = 42.9941
RA_OF_ASC_NODE = 274.7055
ARG_OF_PERICENTER = 263.1096
MEAN_ANOMALY   = 62.1359

EPHEMERIS_TYPE = 0
CLASSIFICATION_TYPE = U
NORAD_CAT_ID   = 67929
ELEMENT_SET_NO = 999
REV_AT_EPOCH   = 298
BSTAR          = .48860658E-3
MEAN_MOTION_DOT = .103271E-2
MEAN_MOTION_DDOT = 0

CCSDS_OMM_VERS = 2.0
CREATION_DATE  = 
ORIGINATOR     = 

OBJECT_NAME    = STARLINK-36865
OBJECT_ID      = 2026-036AC
CENTER_NAME    = EARTH
REF_FRAME      = TEME
TIME_SYSTEM    = UTC
MEAN_ELEMENT_THEORY = SGP/SGP4

EPOCH          = 2026-03-05T14:00:01.999872
MEAN_MOTION    = 15.81973096
ECCENTRICITY   = .00019489
INCLINATION    = 42.9953
RA_OF_ASC_NODE = 274.6839
ARG_OF_PERICENTER = 270.8075
MEAN_ANOMALY   = 62.9718

EPHEMERIS_TYPE = 0
CLASSIFICATION_TYPE = U
NORAD_CAT_ID   = 67930
ELEMENT_SET_NO = 999
REV_AT_EPOCH   = 298
BSTAR          = .3008139E-3
MEAN_MOTION_DOT = .63145E-3
MEAN_MOTION_DDOT = 0

CCSDS_OMM_VERS = 2.0
CREATION_DATE  = 
ORIGINATOR     = 

OBJECT_NAME    = STARLINK-36781
OBJECT_ID      = 2026-036AD
CENTER_NAME    = EARTH
REF_FRAME      = TEME
TIME_SYSTEM    = UTC
MEAN_ELEMENT_THEORY = SGP/SGP4

EPOCH          = 2026-03-05T14:00:01.999872
MEAN_MOTION    = 15.81962119
ECCENTRICITY   = .00016873
INCLINATION    = 42.9957
RA_OF_ASC_NODE = 274.6947
ARG_OF_PERICENTER = 266.2918
MEAN_ANOMALY   = 63.2178

EPHEMERIS_TYPE = 0
CLASSIFICATION_TYPE = U
NORAD_CAT_ID   = 67931
ELEMENT_SET_NO = 999
REV_AT_EPOCH   = 298
BSTAR          = .42969051E-3
MEAN_MOTION_DOT = .90668E-3
MEAN_MOTION_DDOT = 0

CCSDS_OMM_VERS = 2.0
CREATION_DATE  = 
ORIGINATOR     = 

OBJECT_NAME    = STARLINK-36301
OBJECT_ID      = 2026-037A
CENTER_NAME    = EARTH
REF_FRAME      = TEME
TIME_SYSTEM    = UTC
MEAN_ELEMENT_THEORY = SGP/SGP4

EPOCH          = 2026-03-05T14:00:01.999872
MEAN_MOTION    = 15.91933253
ECCENTRICITY   = .00012321
INCLINATION    = 42.9995
RA_OF_ASC_NODE = 223.8906
ARG_OF_PERICENTER = 269.4946
MEAN_ANOMALY   = 288.6695

EPHEMERIS_TYPE = 0
CLASSIFICATION_TYPE = U
NORAD_CAT_ID   = 67932
ELEMENT_SET_NO = 999
REV_AT_EPOCH   = 244
BSTAR          = -.4543934E-2
MEAN_MOTION_DOT = -.1551934E-1
MEAN_MOTION_DDOT = .67505996E-3

CCSDS_OMM_VERS = 2.0
CREATION_DATE  = 
ORIGINATOR     = 

OBJECT_NAME    = STARLINK-36852
OBJECT_ID      = 2026-037B
CENTER_NAME    = EARTH
REF_FRAME      = TEME
TIME_SYSTEM    = UTC
MEAN_ELEMENT_THEORY = SGP/SGP4

EPOCH          = 2026-03-05T14:00:01.999872
MEAN_MOTION    = 15.92072638
ECCENTRICITY   = .00010696
INCLINATION    = 42.9998
RA_OF_ASC_NODE = 223.8847
ARG_OF_PERICENTER = 274.3388
MEAN_ANOMALY   = 286.0919

EPHEMERIS_TYPE = 0
CLASSIFICATION_TYPE = U
NORAD_CAT_ID   = 67933
ELEMENT_SET_NO = 999
REV_AT_EPOCH   = 253
BSTAR          = -.44758931E-2
MEAN_MOTION_DOT = -.1539943E-1
MEAN_MOTION_DDOT = .66640385E-3

